{"type": "FeatureCollection", "features": [ {"type": "Feature", "properties": {"norad_id": 33939, "name": "COSMOS 2251 DEB", "group": "cosmos-2251-debris", "lat": -2.8534540829675366, "lon": -79.15802873946915, "alt_km": 572.978760813231, "timestamp": "2025-12-03T04:52:30.031729+00:00", "meta": {"OBJECT_NAME": "COSMOS 2251 DEB", "OBJECT_ID": "1993-036EU", "EPOCH": "2025-12-02T18:26:56.677920", "MEAN_MOTION": 14.98588865, "ECCENTRICITY": 0.0003247, "INCLINATION": 74.0067, "RA_OF_ASC_NODE": 100.905, "ARG_OF_PERICENTER": 125.2831, "MEAN_ANOMALY": 234.8659, "EPHEMERIS_TYPE": 0, "CLASSIFICATION_TYPE": "U", "NORAD_CAT_ID": 33939, "ELEMENT_SET_NO": 999, "REV_AT_EPOCH": 88603, "BSTAR": 0.0044971, "MEAN_MOTION_DOT": 0.00054321, "MEAN_MOTION_DDOT": 0}, "tle": {"line1": "1 33939U 93036EU  25336.76871155  .00054321  00000+0  44971-2 0  9998", "line2": "2 33939  74.0067 100.9050 0003247 125.2831 234.8659 14.98588865886030"}}, "geometry": {"type": "Point", "coordinates": [-79.15802873946915, -2.8534540829675366]}}, {"type": "Feature", "properties": {"norad_id": 33940, "name": "COSMOS 2251 DEB", "group": "cosmos-2251-debris", "lat": -73.37825210743303, "lon": 55.1364238000754, "alt_km": 696.9816260338239, "timestamp": "2025-12-03T04:52:30.031740+00:00", "meta": {"OBJECT_NAME": "COSMOS 2251 DEB", "OBJECT_ID": "1993-036EV", "EPOCH": "2025-12-02T19:29:35.762208", "MEAN_MOTION": 14.58634449, "ECCENTRICITY": 0.0011734, "INCLINATION": 74.0384, "RA_OF_ASC_NODE": 162.3964, "ARG_OF_PERICENTER": 241.4758, "MEAN_ANOMALY": 131.9532, "EPHEMERIS_TYPE": 0, "CLASSIFICATION_TYPE": "U", "NORAD_CAT_ID": 33940, "ELEMENT_SET_NO": 999, "REV_AT_EPOCH": 88449, "BSTAR": 0.0013037, "MEAN_MOTION_DOT": 6.054e-05, "MEAN_MOTION_DDOT": 0}, "tle": {"line1": "1 33940U 93036EV  25336.81221947  .00006054  00000+0  13037-2 0  9993", "line2": "2 33940  74.0384 162.3964 0011734 241.4758 131.9532 14.58634449884490"}}, "geometry": {"type": "Point", "coordinates": [55.1364238000754, -73.37825210743303]}}, {"type": "Feature", "properties": {"norad_id": 33942, "name": "COSMOS 2251 DEB", "group": "cosmos-2251-debris", "lat": 73.49655766254898, "lon": 37.343186929504824, "alt_km": 754.4635813909199, "timestamp": "2025-12-03T04:52:30.031750+00:00", "meta": {"OBJECT_NAME": "COSMOS 2251 DEB", "OBJECT_ID": "1993-036EX", "EPOCH": "2025-12-02T15:53:07.653696", "MEAN_MOTION": 14.37962962, "ECCENTRICITY": 0.00198605, "INCLINATION": 74.0361, "RA_OF_ASC_NODE": 293.3886, "ARG_OF_PERICENTER": 18.9969, "MEAN_ANOMALY": 154.3314, "EPHEMERIS_TYPE": 0, "CLASSIFICATION_TYPE": "U", "NORAD_CAT_ID": 33942, "ELEMENT_SET_NO": 999, "REV_AT_EPOCH": 87989, "BSTAR": 0.00033320083, "MEAN_MOTION_DOT": 9.83e-06, "MEAN_MOTION_DDOT": 0}, "tle": {"line1": "1 33942U 93036EX  25336.66189414  .00000983  00000+0  33320-3 0  9993", "line2": "2 33942  74.0361 293.3886 0019860  18.9969 154.3314 14.37962962879890"}}, "geometry": {"type": "Point", "coordinates": [37.343186929504824, 73.49655766254898]}}, {"type": "Feature", "properties": {"norad_id": 33944, "name": "COSMOS 2251 DEB", "group": "cosmos-2251-debris", "lat": -10.197857293375716, "lon": -36.478362943639, "alt_km": 755.2686816440983, "timestamp": "2025-12-03T04:52:30.031761+00:00", "meta": {"OBJECT_NAME": "COSMOS 2251 DEB", "OBJECT_ID": "1993-036EZ", "EPOCH": "2025-12-02T09:35:38.304960", "MEAN_MOTION": 14.37308317, "ECCENTRICITY": 0.01119104, "INCLINATION": 74.04, "RA_OF_ASC_NODE": 327.9499, "ARG_OF_PERICENTER": 70.2867, "MEAN_ANOMALY": 85.2273, "EPHEMERIS_TYPE": 0, "CLASSIFICATION_TYPE": "U", "NORAD_CAT_ID": 33944, "ELEMENT_SET_NO": 999, "REV_AT_EPOCH": 87879, "BSTAR": 0.00037119732, "MEAN_MOTION_DOT": 1.163e-05, "MEAN_MOTION_DDOT": 0}, "tle": {"line1": "1 33944U 93036EZ  25336.39974890  .00001163  00000+0  37120-3 0  9998", "line2": "2 33944  74.0400 327.9499 0111910  70.2867  85.2273 14.37308317878799"}}, "geometry": {"type": "Point", "coordinates": [-36.478362943639, -10.197857293375716]}}, {"type": "Feature", "properties": {"norad_id": 33945, "name": "COSMOS 2251 DEB", "group": "cosmos-2251-debris", "lat": -54.03081297177339, "lon": 166.9845966971695, "alt_km": 798.471437772796, "timestamp": "2025-12-03T04:52:30.031771+00:00", "meta": {"OBJECT_NAME": "COSMOS 2251 DEB", "OBJECT_ID": "1993-036FA", "EPOCH": "2025-12-02T16:03:28.588896", "MEAN_MOTION": 14.34587176, "ECCENTRICITY": 0.0021553, "INCLINATION": 74.0293, "RA_OF_ASC_NODE": 324.7211, "ARG_OF_PERICENTER": 54.1946, "MEAN_ANOMALY": 306.1204, "EPHEMERIS_TYPE": 0, "CLASSIFICATION_TYPE": "U", "NORAD_CAT_ID": 33945, "ELEMENT_SET_NO": 999, "REV_AT_EPOCH": 87871, "BSTAR": 0.00017942, "MEAN_MOTION_DOT": 4.82e-06, "MEAN_MOTION_DDOT": 0}, "tle": {"line1": "1 33945U 93036FA  25336.66908089  .00000482  00000+0  17942-3 0  9999", "line2": "2 33945  74.0293 324.7211 0021553  54.1946 306.1204 14.34587176878719"}}, "geometry": {"type": "Point", "coordinates": [166.9845966971695, -54.03081297177339]}}, {"type": "Feature", "properties": {"norad_id": 33948, "name": "COSMOS 2251 DEB", "group": "cosmos-2251-debris", "lat": 48.38470333636686, "lon": -18.56754728773847, "alt_km": 752.6209262482471, "timestamp": "2025-12-03T04:52:30.031781+00:00", "meta": {"OBJECT_NAME": "COSMOS 2251 DEB", "OBJECT_ID": "1993-036FD", "EPOCH": "2025-12-02T10:14:32.293824", "MEAN_MOTION": 14.3560902, "ECCENTRICITY": 0.00223016, "INCLINATION": 74.0351, "RA_OF_ASC_NODE": 324.0568, "ARG_OF_PERICENTER": 42.9104, "MEAN_ANOMALY": 317.3784, "EPHEMERIS_TYPE": 0, "CLASSIFICATION_TYPE": "U", "NORAD_CAT_ID": 33948, "ELEMENT_SET_NO": 999, "REV_AT_EPOCH": 87875, "BSTAR": 0.00026218136, "MEAN_MOTION_DOT": 7.32e-06, "MEAN_MOTION_DDOT": 0}, "tle": {"line1": "1 33948U 93036FD  25336.42676266  .00000732  00000+0  26218-3 0  9999", "line2": "2 33948  74.0351 324.0568 0022301  42.9104 317.3784 14.35609020878753"}}, "geometry": {"type": "Point", "coordinates": [-18.56754728773847, 48.38470333636686]}}, {"type": "Feature", "properties": {"norad_id": 33971, "name": "COSMOS 2251 DEB", "group": "cosmos-2251-debris", "lat": -20.788808588472712, "lon": -94.88603460940679, "alt_km": 753.8475973544482, "timestamp": "2025-12-03T04:52:30.031792+00:00", "meta": {"OBJECT_NAME": "COSMOS 2251 DEB", "OBJECT_ID": "1993-036FE", "EPOCH": "2025-12-02T20:55:26.766048", "MEAN_MOTION": 14.3969337, "ECCENTRICITY": 0.0018079, "INCLINATION": 74.0248, "RA_OF_ASC_NODE": 271.9694, "ARG_OF_PERICENTER": 14.4171, "MEAN_ANOMALY": 47.809, "EPHEMERIS_TYPE": 0, "CLASSIFICATION_TYPE": "U", "NORAD_CAT_ID": 33971, "ELEMENT_SET_NO": 999, "REV_AT_EPOCH": 87997, "BSTAR": 0.0004295, "MEAN_MOTION_DOT": 1.321e-05, "MEAN_MOTION_DDOT": 0}, "tle": {"line1": "1 33971U 93036FE  25336.87183757  .00001321  00000+0  42950-3 0  9998", "line2": "2 33971  74.0248 271.9694 0018079  14.4171  47.8090 14.39693370879974"}}, "geometry": {"type": "Point", "coordinates": [-94.88603460940679, -20.788808588472712]}}, {"type": "Feature", "properties": {"norad_id": 33972, "name": "COSMOS 2251 DEB", "group": "cosmos-2251-debris", "lat": 36.57348355386589, "lon": -139.4795283885359, "alt_km": 685.8774221311651, "timestamp": "2025-12-03T04:52:30.031803+00:00", "meta": {"OBJECT_NAME": "COSMOS 2251 DEB", "OBJECT_ID": "1993-036FF", "EPOCH": "2025-12-02T17:15:50.531040", "MEAN_MOTION": 14.36108362, "ECCENTRICITY": 0.0122892, "INCLINATION": 73.9948, "RA_OF_ASC_NODE": 209.115, "ARG_OF_PERICENTER": 19.1164, "MEAN_ANOMALY": 38.6018, "EPHEMERIS_TYPE": 0, "CLASSIFICATION_TYPE": "U", "NORAD_CAT_ID": 33972, "ELEMENT_SET_NO": 999, "REV_AT_EPOCH": 86930, "BSTAR": 0.0014401, "MEAN_MOTION_DOT": 4.546e-05, "MEAN_MOTION_DDOT": 0}, "tle": {"line1": "1 33972U 93036FF  25336.71933485  .00004546  00000+0  14401-2 0  9994", "line2": "2 33972  73.9948 209.1150 0122892  19.1164  38.6018 14.36108362869306"}}, "geometry": {"type": "Point", "coordinates": [-139.4795283885359, 36.57348355386589]}}, {"type": "Feature", "properties": {"norad_id": 33973, "name": "COSMOS 2251 DEB", "group": "cosmos-2251-debris", "lat": -11.855317778283338, "lon": -55.85000246042618, "alt_km": 755.4234986994452, "timestamp": "2025-12-03T04:52:30.031813+00:00", "meta": {"OBJECT_NAME": "COSMOS 2251 DEB", "OBJECT_ID": "1993-036FG", "EPOCH": "2025-12-02T20:15:18.442944", "MEAN_MOTION": 14.4537252, "ECCENTRICITY": 0.0047112, "INCLINATION": 74.007, "RA_OF_ASC_NODE": 121.3688, "ARG_OF_PERICENTER": 301.6494, "MEAN_ANOMALY": 183.0021, "EPHEMERIS_TYPE": 0, "CLASSIFICATION_TYPE": "U", "NORAD_CAT_ID": 33973, "ELEMENT_SET_NO": 999, "REV_AT_EPOCH": 88457, "BSTAR": 0.0001989, "MEAN_MOTION_DOT": 6.81e-06, "MEAN_MOTION_DDOT": 0}, "tle": {"line1": "1 33973U 93036FG  25336.84396346  .00000681  00000+0  19890-3 0  9992", "line2": "2 33973  74.0070 121.3688 0047112 301.6494 183.0021 14.45372520884576"}}, "geometry": {"type": "Point", "coordinates": [-55.85000246042618, -11.855317778283338]}}, {"type": "Feature", "properties": {"norad_id": 33975, "name": "COSMOS 2251 DEB", "group": "cosmos-2251-debris", "lat": -49.91354083651493, "lon": -58.57944390263046, "alt_km": 759.5418454220817, "timestamp": "2025-12-03T04:52:30.031823+00:00", "meta": {"OBJECT_NAME": "COSMOS 2251 DEB", "OBJECT_ID": "1993-036FJ", "EPOCH": "2025-12-02T17:28:18.662592", "MEAN_MOTION": 14.00486492, "ECCENTRICITY": 0.0191489, "INCLINATION": 73.8011, "RA_OF_ASC_NODE": 102.0511, "ARG_OF_PERICENTER": 236.4744, "MEAN_ANOMALY": 121.797, "EPHEMERIS_TYPE": 0, "CLASSIFICATION_TYPE": "U", "NORAD_CAT_ID": 33975, "ELEMENT_SET_NO": 999, "REV_AT_EPOCH": 85689, "BSTAR": 0.00092189, "MEAN_MOTION_DOT": 1.577e-05, "MEAN_MOTION_DDOT": 0}, "tle": {"line1": "1 33975U 93036FJ  25336.72799378  .00001577  00000+0  92189-3 0  9990", "line2": "2 33975  73.8011 102.0511 0191489 236.4744 121.7970 14.00486492856892"}}, "geometry": {"type": "Point", "coordinates": [-58.57944390263046, -49.91354083651493]}}]}